{
  "norad_id": 53800,
  "name": "STARLINK-4720",
  "history": [
    {
      "epoch": "2026-03-28T21:21:23.199840",
      "apogee_km": 404.88304689915367,
      "perigee_km": 404.094905760704,
      "latitude_deg": 9.055242235606793,
      "longitude_deg": 5.42577760014683,
      "semi_major_axis_km": 6782.625976329929,
      "eccentricity": 5.81e-05,
      "inclination_deg": 53.2102,
      "raan_deg": 147.6405,
      "arg_perigee_deg": 247.4022,
      "mean_anomaly_deg": 112.6929,
      "mean_motion_rev_day": 15.54196615
    }
  ]
}